COSMOS 2433 (720)       
1 32275C 07052A   22179.99979167  .00000000  00000-0  00000-0 0  1791
2 32275  66.0834   4.2863 0001200 173.5354 305.2162  2.13104390    15
COSMOS 2432 (719)       
1 32276C 07052B   22179.99979167  .00000000  00000-0  00000-0 0  1792
2 32276  66.0970   4.3874 0008573 341.9960  85.0605  2.13103608    10
COSMOS 2434 (721)       
1 32393C 07065A   22179.99979167  .00000000  00000-0  00000-0 0  1796
2 32393  64.3815 241.0330 0001174 126.7242 241.6332  2.13103394    17
COSMOS 2456 (730)       
1 36111C 09070A   22179.99979167 -.00000000  00000-0  00000-0 0  1797
2 36111  64.3557 120.6586 0005118 310.8179 222.9492  2.13099399    12
COSMOS 2476 (744)       
1 37867C 11064A   22179.99979167 -.00000000  00000-0  00000-0 0  1792
2 37867  64.6444 122.0194 0022133 239.6849 199.6905  2.13101986    13
COSMOS 2477 (745)       
1 37868C 11064B   22179.99979167 -.00000000  00000-0  00000-0 0  1793
2 37868  64.6521 122.0841 0019453 241.2951  16.1863  2.13101927    14
COSMOS 2475 (743)       
1 37869C 11064C   22179.99979167 -.00000000  00000-0  00000-0 0  1794
2 37869  64.6593 122.0924 0024006 258.0639 317.4425  2.13102208    19
COSMOS 2485 (747)       
1 39155C 13019A   22179.99979167 -.00000000  00000-0  00000-0 0  1796
2 39155  64.8081 122.4501 0022523 235.6202 248.1463  2.13102098    16
COSMOS 2492 (754)       
1 39620C 14012A   22179.99979167  .00000000  00000-0  00000-0 0  1796
2 39620  65.8417   2.7527 0011402 333.3915 184.8510  2.13103497    19
COSMOS 2500 (755)       
1 40001C 14032A   22179.99979167  .00000000  00000-0  00000-0 0  1793
2 40001  65.7812   2.6131 0005978 178.7624 198.1192  2.13102683    11
COSMOS 2501 (702K)      
1 40315C 14075A   22179.99979167  .00000000  00000-0  00000-0 0  1798
2 40315  63.6885 240.7670 0019179 210.7103 334.2151  2.13101608    10
COSMOS 2514 (751)       
1 41330C 16008A   22179.99979167  .00000000  00000-0  00000-0 0  1794
2 41330  65.5813   2.3021 0009013 198.0640   2.6650  2.13103121    14
COSMOS 2547 (705K)      
1 46805C 20075A   22179.99979167  .00000000  00000-0  00000-0 0  1795
2 46805  64.6591 241.0778 0008212 244.3970 213.7340  2.13103310    12
COSMOS 2522 (752)       
1 42939C 17055A   22179.99979167  .00000000  00000-0  00000-0 0  1793
2 42939  64.1481 241.4449 0009387 242.1114  78.1816  2.13102169    10
COSMOS 2527 (756)       
1 43508C 18053A   22179.99979167 -.00000000  00000-0  00000-0 0  1796
2 43508  64.9711 122.4526 0008578 239.2006 113.1978  2.13102651    14
COSMOS 2529 (757)       
1 43687C 18086A   22179.99979167  .00000000  00000-0  00000-0 0  1799
2 43687  64.3630 241.7642 0011123 262.5769  13.2462  2.13102332    19
COSMOS 2534 (758)       
1 44299C 19030A   22179.99979167  .00000000  00000-0  00000-0 0  1799
2 44299  64.4349 241.6500 0013394 282.1770 128.2165  2.13102250    17
COSMOS 2544 (759)       
1 44850C 19088A   22179.99979167 -.00000000  00000-0  00000-0 0  1796
2 44850  64.9563 122.3045 0013411 263.0116 132.8460  2.13102402    12
COSMOS 2545 (760)       
1 45358C 20018A   22179.99979167  .00000000  00000-0  00000-0 0  1794
2 45358  64.9191   2.9006 0006712 238.6466   6.6752  2.13103092    13
